OBJECT_NAME,OBJECT_ID,EPOCH,MEAN_MOTION,ECCENTRICITY,INCLINATION,RA_OF_ASC_NODE,ARG_OF_PERICENTER,MEAN_ANOMALY,EPHEMERIS_TYPE,CLASSIFICATION_TYPE,NORAD_CAT_ID,ELEMENT_SET_NO,REV_AT_EPOCH,BSTAR,MEAN_MOTION_DOT,MEAN_MOTION_DDOT
LUDI TANCE 1-01A (L-SAR 01A),2022-007A,2026-06-12T06:33:56.723616,14.88416415,.00016163,97.8098,170.7633,90.6435,269.4967,0,U,51284,999,23774,.68129106E-4,.577E-5,0
LUDI TANCE 1-01B (L-SAR 01B),2022-018A,2026-06-12T07:22:19.658208,14.88412618,.00015861,97.8102,170.7926,91.0266,269.1133,0,U,51822,999,23298,.72688956E-4,.619E-5,0
2022-019D,2022-019D,2026-06-12T06:45:38.567232,15.70346773,.00056634,97.3667,255.5011,156.5085,203.6437,0,U,51827,999,23893,.68615245E-3,.84155E-3,0
2022-019J,2022-019J,2026-06-12T06:29:36.321792,15.20417333,.00070095,97.3436,226.2081,241.4211,118.6319,0,U,51832,999,23705,.72069429E-4,.1504E-4,0
2022-023F,2022-023F,2026-06-12T06:28:15.849696,15.17960745,.0129417,63.4452,290.1985,342.6056,17.0642,0,U,51951,999,23696,.64462094E-3,.16189E-3,0
CZ-4C R/B,2022-027B,2026-06-12T02:37:09.869664,13.65479759,.02321246,63.3942,72.4426,22.6404,338.4673,0,U,52085,999,21134,.34208583E-4,-.62E-6,0
MERIDIAN 10,2022-030A,2026-06-11T11:41:25.319040,2.00614267,.67821757,62.6777,141.4098,272.8584,17.6673,0,U,52145,999,3091,0,.24E-5,0
OMNI-L1,2022-033A,2026-06-12T04:26:28.925664,14.82731720,.00039803,97.8396,242.4594,310.3971,49.6895,0,U,52157,999,22671,.23868422E-3,.1875E-4,0
ENMAP,2022-033C,2026-06-12T06:44:49.223328,14.74984509,.00013928,97.9791,245.6003,85.5153,274.6215,0,U,52159,999,22593,.78519713E-4,.478E-5,0
ARCSAT-1,2022-033E,2026-06-12T05:31:41.018304,15.53509655,.00044473,97.2756,255.4301,198.4115,161.6978,0,U,52161,999,23493,.22070109E-3,.13928E-3,0
GLOBAL-18,2022-034B,2026-06-11T15:09:07.298208,15.46043673,.0003087,52.9819,283.1883,249.2112,110.8562,0,U,52196,999,23610,.45571E-3,.22262E-3,0
GAOFEN-3 03,2022-035A,2026-06-12T07:17:31.089120,14.42214854,.00011928,98.4064,171.9550,99.9617,260.1707,0,U,52200,999,22014,.60877934E-4,.157E-5,0
DAQI-1,2022-039A,2026-06-12T06:31:15.857184,14.57675574,.00022791,98.1476,102.2253,278.9480,81.1461,0,U,52257,999,22122,.10928747E-3,.453E-5,0
BRO-6,2022-047AE,2026-06-12T07:07:49.357920,15.50226332,.00054274,97.3402,254.2594,94.5985,265.5887,0,U,52422,999,23039,.72329188E-3,.40937E-3,0
JILIN-1 GAOFEN 3D27,2022-048B,2026-06-12T06:17:50.638560,15.74226986,.00014578,97.5704,276.7553,69.1013,291.0406,0,U,52444,999,22870,.85609781E-3,.124185E-2,0
JILIN-1 GAOFEN 3D28,2022-048C,2026-06-12T06:30:10.110240,15.77090594,.00010369,97.5640,276.8951,153.1577,206.9742,0,U,52445,999,22875,.87971348E-3,.144871E-2,0
VIGORIDE-3,2022-057AE,2026-06-12T07:15:59.765184,15.27230343,.00093561,97.6592,303.1480,135.4368,224.7625,0,U,52760,999,22441,.21413947E-3,.5642E-4,0
ION SCV-006,2022-057AF,2026-06-11T23:37:38.741952,15.45161885,.00182602,97.6086,311.3578,131.2213,229.0613,0,U,52761,999,22531,.25622145E-3,.1213E-3,0
SHERPA-AC1,2022-057AH,2026-06-12T07:29:13.642080,15.36199457,.00089428,97.6673,312.3358,108.0344,252.1874,0,U,52763,999,22495,.22391742E-3,.7822E-4,0
OMNI-L2,2022-057AR,2026-06-12T04:35:55.147200,14.81358510,.00062309,97.4717,225.8856,354.9955,5.1196,0,U,52771,999,21965,.17500745E-3,.132E-4,0
STEP CUBE LAB-II,2022-065D,2026-06-12T06:44:37.745952,14.63295737,.00095804,98.2217,307.1980,46.5615,313.6382,0,U,52897,999,21078,.13928791E-3,.671E-5,0
RANDEV,2022-065E,2026-06-12T05:09:36.366336,14.63682883,.0008918,98.2203,307.4818,47.4519,312.7435,0,U,52898,999,21052,.15576716E-3,.763E-5,0
SNUGLITE-II,2022-065F,2026-06-12T02:40:11.102304,14.64338347,.00083022,98.2195,307.9510,47.4913,312.6989,0,U,52899,999,21025,.156968E-3,.781E-5,0
MIMAN,2022-065G,2026-06-12T04:31:28.396704,14.61839051,.00085002,98.2253,305.6963,48.9596,311.2338,0,U,52900,999,20971,.10932853E-3,.499E-5,0
STARLINK-4362,2022-077A,2026-06-12T05:09:17.948448,15.05652660,.00016,97.3716,342.3881,83.5172,276.6238,0,U,53043,999,21513,-.49482317E-4,-.771E-5,0
LARES-2,2022-080A,2026-06-11T09:04:16.246848,6.38965132,.0005423,70.1631,307.3215,335.1501,24.8749,0,U,53105,999,9129,0,-.14E-6,0
GREENCUBE (IO-117),2022-080E,2026-06-01T11:09:37.753056,6.42583280,.00088692,70.1435,303.7143,293.3663,66.6064,0,U,53109,999,9105,0,-.3E-7,0
STARLINK-4410,2022-084R,2026-06-12T08:00:01.999872,15.29010083,.00019498,97.6015,224.3105,68.2235,72.9968,0,U,53204,999,588,.40759792E-3,.11411E-3,0
COSMOS 2558,2022-089A,2026-06-11T19:23:54.644640,15.74063350,.0000708,97.2252,266.6576,215.7963,144.3254,0,U,53323,999,21698,.67404E-3,.96743E-3,0
TECMS,2022-090A,2026-06-12T07:00:19.503360,15.21374510,.00029393,97.3145,231.5389,191.6439,168.4730,0,U,53346,999,21406,.16627498E-3,.366E-4,0
