{"_default": { "268": {"norad_id": "52761", "name": "ION SCV-006", "tle1": "1 52761U 22057AF  26162.98447618  .00012130  00000-0  25622-3 0  9998", "tle2": "2 52761  97.6086 311.3578 0018260 131.2213 229.0613 15.45161885225317", "object_type": "PAYLOAD", "criticality_score": 7.0, "last_updated": "2026-06-12T14:14:32.686762+00:00", "maneuver_count": 0, "owner": "N/A"}, "275": {"norad_id": "52763", "name": "SHERPA-AC1", "tle1": "1 52763U 22057AH  26163.31196345  .00007822  00000-0  22392-3 0  9999", "tle2": "2 52763  97.6673 312.3358 0008943 108.0344 252.1874 15.36199457224953", "object_type": "PAYLOAD", "criticality_score": 7.0, "last_updated": "2026-06-12T14:14:32.686762+00:00", "maneuver_count": 0, "owner": "N/A"}, "279": {"norad_id": "52771", "name": "OMNI-L2", "tle1": "1 52771U 22057AR  26163.19161050  .00001320  00000-0  17501-3 0  9992", "tle2": "2 52771  97.4717 225.8856 0006231 354.9955   5.1196 14.81358510219658", "object_type": "PAYLOAD", "criticality_score": 7.0, "last_updated": "2026-06-12T14:14:32.686762+00:00", "maneuver_count": 0, "owner": "N/A"}, "280": {"norad_id": "52422", "name": "BRO-6", "tle1": "1 52422U 22047AE  26163.29709905  .00040937  00000-0  72329-3 0  9998", "tle2": "2 52422  97.3402 254.2594 0005427  94.5985 265.5887 15.50226332230398", "object_type": "PAYLOAD", "criticality_score": 7.0, "last_updated": "2026-06-12T14:14:32.686762+00:00", "maneuver_count": 0, "owner": "N/A"}, "296": {"norad_id": "52897", "name": "STEP CUBE LAB-II", "tle1": "1 52897U 22065D   26163.28099243  .00000671  00000-0  13929-3 0  9992", "tle2": "2 52897  98.2217 307.1980 0009580  46.5615 313.6382 14.63295737210780", "object_type": "PAYLOAD", "criticality_score": 7.0, "last_updated": "2026-06-12T14:14:32.686762+00:00", "maneuver_count": 0, "owner": "N/A"}, "297": {"norad_id": "52898", "name": "RANDEV", "tle1": "1 52898U 22065E   26163.21500424  .00000763  00000-0  15577-3 0  9997", "tle2": "2 52898  98.2203 307.4818 0008918  47.4519 312.7435 14.63682883210529", "object_type": "PAYLOAD", "criticality_score": 7.0, "last_updated": "2026-06-12T14:14:32.686762+00:00", "maneuver_count": 0, "owner": "N/A"}, "298": {"norad_id": "52899", "name": "SNUGLITE-II", "tle1": "1 52899U 22065F   26163.11123961  .00000781  00000-0  15697-3 0  9997", "tle2": "2 52899  98.2195 307.9510 0008302  47.4913 312.6989 14.64338347210256", "object_type": "PAYLOAD", "criticality_score": 7.0, "last_updated": "2026-06-12T14:14:32.686762+00:00", "maneuver_count": 0, "owner": "N/A"}, "301": {"norad_id": "52900", "name": "MIMAN", "tle1": "1 52900U 22065G   26163.18852311  .00000499  00000-0  10933-3 0  9999", "tle2": "2 52900  98.2253 305.6963 0008500  48.9596 311.2338 14.61839051209711", "object_type": "PAYLOAD", "criticality_score": 7.0, "last_updated": "2026-06-12T14:14:32.686762+00:00", "maneuver_count": 0, "owner": "N/A"}, "308": {"norad_id": "53109", "name": "AVUM R/B", "tle1": "1 53109U 22080E   26152.46502029 -.00000003  00000-0  00000-0 0  9998", "tle2": "2 53109  70.1435 303.7143 0008869 293.3663  66.6064  6.42583280 91055", "object_type": "ROCKET_BODY", "criticality_score": 3.0, "last_updated": "2026-06-12T14:14:32.686762+00:00", "maneuver_count": 0, "owner": "N/A"}, "313": {"norad_id": "53105", "name": "LARES-2", "tle1": "1 53105U 22080A   26162.37796582 -.00000014  00000-0  00000+0 0  9995", "tle2": "2 53105  70.1631 307.3215 0005423 335.1501  24.8749  6.38965132 91295", "object_type": "PAYLOAD", "criticality_score": 7.0, "last_updated": "2026-06-12T14:14:32.686762+00:00", "maneuver_count": 0, "owner": "N/A"}, "314": {"norad_id": "52760", "name": "VIGORIDE 3", "tle1": "1 52760U 22057AE  26163.30277506  .00005642  00000-0  21414-3 0  9996", "tle2": "2 52760  97.6592 303.1480 0009356 135.4368 224.7625 15.27230343224413", "object_type": "PAYLOAD", "criticality_score": 7.0, "last_updated": "2026-06-12T14:14:32.686762+00:00", "maneuver_count": 0, "owner": "N/A"}, "325": {"norad_id": "52157", "name": "OMNI-L1", "tle1": "1 52157U 22033A   26163.18505701  .00001875  00000-0  23868-3 0  9996", "tle2": "2 52157  97.8396 242.4594 0003980 310.3971  49.6895 14.82731720226712", "object_type": "PAYLOAD", "criticality_score": 7.0, "last_updated": "2026-06-12T14:14:32.686762+00:00", "maneuver_count": 0, "owner": "N/A"}, "329": {"norad_id": "53204", "name": "STARLINK-4410", "tle1": "1 53204U 22084R   26163.33335648  .00011411  00000-0  40760-3 0  9991", "tle2": "2 53204  97.6015 224.3105 0001950  68.2235  72.9968 15.29010083  5883", "object_type": "PAYLOAD", "criticality_score": 8.0, "last_updated": "2026-06-12T14:14:32.686762+00:00", "maneuver_count": 0, "owner": "N/A"}, "332": {"norad_id": "53043", "name": "STARLINK-4362", "tle1": "1 53043U 22077A   26163.21479107 -.00000771  00000-0 -49482-4 0  9990", "tle2": "2 53043  97.3716 342.3881 0001600  83.5172 276.6238 15.05652660215134", "object_type": "PAYLOAD", "criticality_score": 8.0, "last_updated": "2026-06-12T14:14:32.686762+00:00", "maneuver_count": 0, "owner": "N/A"}, "338": {"norad_id": "51827", "name": "OBJECT D", "tle1": "1 51827U 22019D   26163.28169638  .00084155  00000-0  68615-3 0  9990", "tle2": "2 51827  97.3667 255.5011 0005663 156.5085 203.6437 15.70346773238935", "object_type": "PAYLOAD", "criticality_score": 7.0, "last_updated": "2026-06-12T14:14:32.686762+00:00", "maneuver_count": 0, "owner": "N/A"}, "402": {"norad_id": "52085", "name": "CZ-4C R/B", "tle1": "1 52085U 22027B   26163.10914201 -.00000062  00000-0  34209-4 0  9990", "tle2": "2 52085  63.3942  72.4426 0232125  22.6404 338.4673 13.65479759211348", "object_type": "ROCKET_BODY", "criticality_score": 3.0, "last_updated": "2026-06-12T14:14:32.686762+00:00", "maneuver_count": 0, "owner": "N/A"}, "415": {"norad_id": "51284", "name": "LT-1 01A", "tle1": "1 51284U 22007A   26163.27357319  .00000577  00000-0  68129-4 0  9995", "tle2": "2 51284  97.8098 170.7633 0001616  90.6435 269.4967 14.88416415237749", "object_type": "PAYLOAD", "criticality_score": 7.0, "last_updated": "2026-06-12T14:14:32.686762+00:00", "maneuver_count": 0, "owner": "N/A"}, "426": {"norad_id": "52161", "name": "ARCSAT-1", "tle1": "1 52161U 22033E   26163.23033586  .00013928  00000-0  22070-3 0  9990", "tle2": "2 52161  97.2756 255.4301 0004447 198.4115 161.6978 15.53509655234934", "object_type": "PAYLOAD", "criticality_score": 7.0, "last_updated": "2026-06-12T14:14:32.686762+00:00", "maneuver_count": 0, "owner": "N/A"}, "430": {"norad_id": "51832", "name": "OBJECT J", "tle1": "1 51832U 22019J   26163.27055928  .00001504  00000-0  72069-4 0  9997", "tle2": "2 51832  97.3436 226.2081 0007009 241.4211 118.6319 15.20417333237050", "object_type": "PAYLOAD", "criticality_score": 7.0, "last_updated": "2026-06-12T14:14:32.686762+00:00", "maneuver_count": 0, "owner": "N/A"}, "439": {"norad_id": "52196", "name": "GLOBAL-18", "tle1": "1 52196U 22034B   26162.63133447  .00022262  00000-0  45571-3 0  9991", "tle2": "2 52196  52.9819 283.1883 0003087 249.2112 110.8562 15.46043673236105", "object_type": "PAYLOAD", "criticality_score": 7.0, "last_updated": "2026-06-12T14:14:32.686762+00:00", "maneuver_count": 0, "owner": "N/A"}, "441": {"norad_id": "53346", "name": "OBJECT A", "tle1": "1 53346U 22090A   26163.29189240  .00003660  00000-0  16627-3 0  9997", "tle2": "2 53346  97.3145 231.5389 0002939 191.6439 168.4730 15.21374510214060", "object_type": "PAYLOAD", "criticality_score": 7.0, "last_updated": "2026-06-12T14:14:32.686762+00:00", "maneuver_count": 0, "owner": "N/A"}, "456": {"norad_id": "52445", "name": "JILIN-01 GAOFEN 3D 28", "tle1": "1 52445U 22048C   26163.27095035  .00144871  00000-0  87971-3 0  9995", "tle2": "2 52445  97.5640 276.8951 0001037 153.1577 206.9742 15.77090594228752", "object_type": "PAYLOAD", "criticality_score": 7.0, "last_updated": "2026-06-12T14:14:32.686762+00:00", "maneuver_count": 0, "owner": "N/A"}, "457": {"norad_id": "52444", "name": "JILIN-01 GAOFEN 3D 27", "tle1": "1 52444U 22048B   26163.26239165  .00124185  00000-0  85610-3 0  9991", "tle2": "2 52444  97.5704 276.7553 0001458  69.1013 291.0406 15.74226986228707", "object_type": "PAYLOAD", "criticality_score": 7.0, "last_updated": "2026-06-12T14:14:32.686762+00:00", "maneuver_count": 0, "owner": "N/A"}, "483": {"norad_id": "52159", "name": "ENMAP", "tle1": "1 52159U 22033C   26163.28112527  .00000478  00000-0  78520-4 0  9993", "tle2": "2 52159  97.9791 245.6003 0001393  85.5153 274.6215 14.74984509225938", "object_type": "PAYLOAD", "criticality_score": 7.0, "last_updated": "2026-06-12T14:14:32.686762+00:00", "maneuver_count": 0, "owner": "N/A"}, "484": {"norad_id": "51951", "name": "OBJECT F", "tle1": "1 51951U 22023F   26163.26962789  .00016189  00000-0  64462-3 0  9997", "tle2": "2 51951  63.4452 290.1985 0129417 342.6056  17.0642 15.17960745236962", "object_type": "PAYLOAD", "criticality_score": 7.0, "last_updated": "2026-06-12T14:14:32.686762+00:00", "maneuver_count": 0, "owner": "N/A"}, "501": {"norad_id": "51822", "name": "LT-1 01B", "tle1": "1 51822U 22018A   26163.30717197  .00000619  00000-0  72689-4 0  9996", "tle2": "2 51822  97.8102 170.7926 0001586  91.0266 269.1133 14.88412618232985", "object_type": "PAYLOAD", "criticality_score": 7.0, "last_updated": "2026-06-12T14:14:32.686762+00:00", "maneuver_count": 0, "owner": "N/A"}, "513": {"norad_id": "52257", "name": "DAQI 1", "tle1": "1 52257U 22039A   26163.27171131  .00000453  00000-0  10929-3 0  9994", "tle2": "2 52257  98.1476 102.2253 0002279 278.9480  81.1461 14.57675574221222", "object_type": "PAYLOAD", "criticality_score": 7.0, "last_updated": "2026-06-12T14:14:32.686762+00:00", "maneuver_count": 0, "owner": "N/A"}, "569": {"norad_id": "53323", "name": "COSMOS 2558", "tle1": "1 53323U 22089A   26162.80827135  .00096743  00000-0  67404-3 0  9991", "tle2": "2 53323  97.2252 266.6576 0000708 215.7963 144.3254 15.74063350216984", "object_type": "PAYLOAD", "criticality_score": 7.0, "last_updated": "2026-06-12T14:14:32.686762+00:00", "maneuver_count": 0, "owner": "N/A"}, "577": {"norad_id": "52200", "name": "GAOFEN 3 03", "tle1": "1 52200U 22035A   26163.30383205  .00000157  00000-0  60878-4 0  9999", "tle2": "2 52200  98.4064 171.9550 0001193  99.9617 260.1707 14.42214854220142", "object_type": "PAYLOAD", "criticality_score": 7.0, "last_updated": "2026-06-12T14:14:32.686762+00:00", "maneuver_count": 0, "owner": "N/A"}, "662": {"norad_id": "52145", "name": "MERIDIAN 10", "tle1": "1 52145U 22030A   26162.48709860  .00000240  00000-0  00000-0 0  9999", "tle2": "2 52145  62.6777 141.4098 6782176 272.8584  17.6673  2.00614267 30915", "object_type": "PAYLOAD", "criticality_score": 7.0, "last_updated": "2026-06-12T14:14:32.686762+00:00", "maneuver_count": 0, "owner": "N/A"}}}